OBJECT_NAME,OBJECT_ID,EPOCH,MEAN_MOTION,ECCENTRICITY,INCLINATION,RA_OF_ASC_NODE,ARG_OF_PERICENTER,MEAN_ANOMALY,EPHEMERIS_TYPE,CLASSIFICATION_TYPE,NORAD_CAT_ID,ELEMENT_SET_NO,REV_AT_EPOCH,BSTAR,MEAN_MOTION_DOT,MEAN_MOTION_DDOT
TYVAK-0173,2021-059P,2026-07-20T03:33:49.163616,14.81979685,.00070836,96.0068,269.3114,278.5193,81.5222,0,U,48892,999,27312,.10458692E-3,.798E-5,0
MANDRAKE 2 ABLE,2021-059AE,2026-07-20T11:51:20.635776,15.56219265,.00041805,97.7035,33.8507,210.3389,149.7623,0,U,48907,999,28230,.2056638E-3,.14318E-3,0
MANDRAKE 2 BAKER,2021-059AF,2026-07-20T01:37:24.654144,15.61143961,.00031839,97.6996,36.5003,198.3457,161.7685,0,U,48908,999,28242,.20788633E-3,.17435E-3,0
PACE-1,2021-059AG,2026-07-20T02:07:54.093792,15.86149202,.00035401,97.6715,43.1015,168.6088,191.5263,0,U,48909,999,28300,.36067224E-3,.89516E-3,0
YAM-3,2021-059AN,2026-07-20T14:18:50.398560,15.49222434,.0004271,97.7001,30.7538,216.1878,143.9083,0,U,48915,999,28216,.13467335E-3,.7242E-4,0
FARADAY_PHOENIX,2021-059AX,2026-07-20T00:22:28.563168,15.88602495,.00058281,97.6766,42.9512,187.0195,173.0996,0,U,48924,999,28285,.67767373E-3,.187492E-2,.14786912E-4
DEMO8 (TENZING),2021-059CA,2026-07-20T01:08:09.430368,15.56152294,.00060872,97.7017,36.9978,211.2421,148.8471,0,U,48951,999,28241,.17780135E-3,.12335E-3,0
FENGYUN 3E,2021-062A,2026-07-20T14:28:18.244416,14.19906273,.00020163,98.7507,204.6398,30.2211,329.9081,0,U,49008,999,26132,-.45568821E-4,-.141E-5,0
ISS (NAUKA),2021-066A,2026-07-20T11:25:17.594112,15.49061331,.00068283,51.6314,135.3560,318.0948,41.9517,0,U,49044,999,57603,.93970535E-4,.4742E-4,0
STARLINK-3100,2021-082Q,2026-07-20T08:29:02.444064,14.98333155,.00032308,70.0006,319.9534,271.1486,88.9303,0,U,49144,999,26585,-.7647619E-5,-.184E-5,0
2021-091B,2021-091B,2026-07-20T14:21:40.061376,15.18693298,.00116921,97.4481,28.6677,287.1045,72.8908,0,U,49316,999,26405,.44474205E-4,.855E-5,0
SDGSAT 1,2021-100A,2026-07-20T14:59:49.808256,15.19252180,.00103832,97.2610,247.2954,145.2221,214.9695,0,U,49387,999,26099,.55266157E-4,.1101E-4,0
TEIKYOSAT-4 (OORURI),2021-102B,2026-07-20T01:33:35.405568,15.09608651,.00121988,97.3661,229.2704,171.9049,188.2380,0,U,49396,999,25768,.50473582E-4,.752E-5,0
Z-SAT,2021-102E,2026-07-20T13:03:43.631136,15.18489117,.00181385,97.3313,235.8566,127.0993,233.1903,0,U,49399,999,25850,.1454923E-3,.2945E-4,0
HIBARI,2021-102F,2026-07-20T02:53:07.446048,15.32339710,.00132407,97.3216,246.6580,86.3112,273.9644,0,U,49400,999,25923,.20298483E-3,.6277E-4,0
KOSEN-1,2021-102H,2026-07-20T08:44:17.107296,15.27256919,.00154192,97.3168,242.8826,91.5550,268.7456,0,U,49402,999,25908,.15984174E-3,.4209E-4,0
GLOBAL-14,2021-106A,2026-07-18T18:16:08.699520,15.51942274,.00182515,42.0036,103.2309,247.4363,112.4550,0,U,49469,999,26303,.24419325E-3,.14858E-3,0
GAOFEN-3 02,2021-109A,2026-07-20T13:24:08.860896,14.42211288,.00014404,98.4097,209.1820,232.8073,127.2985,0,U,49495,999,24512,.45016368E-4,.105E-5,0
GLOBAL-12,2021-115BA,2026-07-20T10:31:45.268896,15.55517545,.00030179,53.1934,244.4093,77.0506,283.0844,0,U,49772,999,26107,.24893488E-3,.16868E-3,0
GLOBAL-13,2021-115BB,2026-07-20T08:00:06.538464,15.47227107,.00001755,53.1962,256.8692,106.3211,253.7817,0,U,49773,999,26089,.20249713E-3,.10049E-3,0
GLOBAL-17,2021-120A,2026-07-20T04:56:23.042400,15.53872736,.00137194,41.9932,212.2856,130.0195,230.1856,0,U,49949,999,26003,.2288248E-3,.14882E-3,0
GLOBAL-16,2021-120B,2026-07-20T09:27:43.965504,15.51624217,.00116622,41.9932,215.5379,121.2575,238.9413,0,U,49950,999,26000,.22573772E-3,.13495E-3,0
XW-3 (CAS-9),2021-131B,2026-07-20T14:00:33.816672,14.41384196,.00042217,98.4984,293.7935,16.3400,343.7925,0,U,50466,999,23992,.5400898E-4,.131E-5,0
ION SCV-004,2022-002K,2026-07-20T13:49:56.050752,15.30739396,.00060769,97.2811,258.6104,223.3240,136.7524,0,U,50993,999,25040,.1052214E-3,.3052E-4,0
ETV-A1,2022-002CE,2026-07-20T14:02:21.727680,15.41301669,.00044646,97.2855,267.8058,202.6081,157.4970,0,U,51060,999,25098,.15903581E-3,.6539E-4,0
BRO-5,2022-002CF,2026-07-20T14:24:16.353792,15.49045171,.00059686,97.2973,275.6051,183.3721,176.7491,0,U,51061,999,25142,.15811246E-3,.848E-4,0
LUDI TANCE 1-01A (L-SAR 01A),2022-007A,2026-07-20T14:13:48.020160,14.88412176,.00016125,97.8108,208.5391,91.5367,268.6034,0,U,51284,999,24344,.3526951E-4,.273E-5,0
LUDI TANCE 1-01B (L-SAR 01B),2022-018A,2026-07-20T15:02:11.853312,14.88417746,.00016392,97.8114,208.5708,90.1137,270.0267,0,U,51822,999,23868,.39552411E-4,.312E-5,0
