TYVAK-0173              
1 48892U 21059P   26201.14848569  .00000798  00000+0  10459-3 0  9999
2 48892  96.0068 269.3114 0007083 278.5193  81.5222 14.81979685273124
MANDRAKE 2 ABLE         
1 48907U 21059AE  26201.49398884  .00014318  00000+0  20566-3 0  9997
2 48907  97.7035  33.8507 0004180 210.3389 149.7623 15.56219265282305
MANDRAKE 2 BAKER        
1 48908U 21059AF  26201.06764646  .00017435  00000+0  20789-3 0  9994
2 48908  97.6996  36.5003 0003183 198.3457 161.7685 15.61143961282425
PACE-1                  
1 48909U 21059AG  26201.08882053  .00089516  00000+0  36067-3 0  9995
2 48909  97.6715  43.1015 0003540 168.6088 191.5263 15.86149202283008
YAM-3                   
1 48915U 21059AN  26201.59641665  .00007242  00000+0  13467-3 0  9995
2 48915  97.7001  30.7538 0004271 216.1878 143.9083 15.49222434282169
FARADAY_PHOENIX         
1 48924U 21059AX  26201.01560837  .00187492  14787-4  67767-3 0  9993
2 48924  97.6766  42.9512 0005828 187.0195 173.0996 15.88602495282855
DEMO8 (TENZING)         
1 48951U 21059CA  26201.04733137  .00012335  00000+0  17780-3 0  9992
2 48951  97.7017  36.9978 0006087 211.2421 148.8471 15.56152294282416
FENGYUN 3E              
1 49008U 21062A   26201.60298894 -.00000141  00000+0 -45569-4 0  9999
2 49008  98.7507 204.6398 0002016  30.2211 329.9081 14.19906273261327
ISS (NAUKA)             
1 49044U 21066A   26201.47589808  .00004742  00000+0  93971-4 0  9995
2 49044  51.6314 135.3560 0006828 318.0948  41.9517 15.49061331576034
STARLINK-3100           
1 49144U 21082Q   26201.35350051 -.00000184  00000+0 -76476-5 0  9997
2 49144  70.0006 319.9534 0003230 271.1486  88.9303 14.98333155265857
2021-091B               
1 49316U 21091B   26201.59838034  .00000855  00000+0  44474-4 0  9991
2 49316  97.4481  28.6677 0011692 287.1045  72.8908 15.18693298264053
SDGSAT 1                
1 49387U 21100A   26201.62488204  .00001101  00000+0  55266-4 0  9990
2 49387  97.2610 247.2954 0010383 145.2221 214.9695 15.19252180260999
TEIKYOSAT-4 (OORURI)    
1 49396U 21102B   26201.06499312  .00000752  00000+0  50474-4 0  9999
2 49396  97.3661 229.2704 0012198 171.9049 188.2380 15.09608651257682
Z-SAT                   
1 49399U 21102E   26201.54425499  .00002945  00000+0  14549-3 0  9998
2 49399  97.3313 235.8566 0018138 127.0993 233.1903 15.18489117258505
HIBARI                  
1 49400U 21102F   26201.12022507  .00006277  00000+0  20298-3 0  9998
2 49400  97.3216 246.6580 0013240  86.3112 273.9644 15.32339710259239
KOSEN-1                 
1 49402U 21102H   26201.36408689  .00004209  00000+0  15984-3 0  9994
2 49402  97.3168 242.8826 0015419  91.5550 268.7456 15.27256919259081
GLOBAL-14               
1 49469U 21106A   26199.76121180  .00014858  00000+0  24419-3 0  9993
2 49469  42.0036 103.2309 0018251 247.4363 112.4550 15.51942274263035
GAOFEN-3 02             
1 49495U 21109A   26201.55843589  .00000105  00000+0  45016-4 0  9997
2 49495  98.4097 209.1820 0001440 232.8073 127.2985 14.42211288245127
GLOBAL-12               
1 49772U 21115BA  26201.43871839  .00016868  00000+0  24893-3 0  9990
2 49772  53.1934 244.4093 0003017  77.0506 283.0844 15.55517545261076
GLOBAL-13               
1 49773U 21115BB  26201.33340901  .00010049  00000+0  20250-3 0  9999
2 49773  53.1962 256.8692 0000175 106.3211 253.7817 15.47227107260897
GLOBAL-17               
1 49949U 21120A   26201.20582225  .00014882  00000+0  22882-3 0  9995
2 49949  41.9932 212.2856 0013719 130.0195 230.1856 15.53872736260034
GLOBAL-16               
1 49950U 21120B   26201.39425886  .00013495  00000+0  22574-3 0  9993
2 49950  41.9932 215.5379 0011662 121.2575 238.9413 15.51624217260000
XW-3 (CAS-9)            
1 50466U 21131B   26201.58372473  .00000131  00000+0  54009-4 0  9995
2 50466  98.4984 293.7935 0004221  16.3400 343.7925 14.41384196239925
ION SCV-004             
1 50993U 22002K   26201.57634318  .00003052  00000+0  10522-3 0  9992
2 50993  97.2811 258.6104 0006076 223.3240 136.7524 15.30739396250402
ETV-A1                  
1 51060U 22002CE  26201.58497370  .00006539  00000+0  15904-3 0  9996
2 51060  97.2855 267.8058 0004464 202.6081 157.4970 15.41301669250986
BRO-5                   
1 51061U 22002CF  26201.60018928  .00008480  00000+0  15811-3 0  9992
2 51061  97.2973 275.6051 0005968 183.3721 176.7491 15.49045171251427
LUDI TANCE 1-01A (L-SA*)
1 51284U 22007A   26201.59291690  .00000273  00000+0  35270-4 0  9995
2 51284  97.8108 208.5391 0001612  91.5367 268.6034 14.88412176243442
LUDI TANCE 1-01B (L-SA*)
1 51822U 22018A   26201.62652608  .00000312  00000+0  39552-4 0  9990
2 51822  97.8114 208.5708 0001639  90.1137 270.0267 14.88417746238681
